[{"OBJECT_NAME":"STARLINK-4791","OBJECT_ID":"2022-119BC","EPOCH":"2025-08-24T01:26:06.900576","MEAN_MOTION":15.08837705,"ECCENTRICITY":0.00013345,"INCLINATION":53.2165,"RA_OF_ASC_NODE":106.0524,"ARG_OF_PERICENTER":90.0068,"MEAN_ANOMALY":270.1078,"EPHEMERIS_TYPE":0,"CLASSIFICATION_TYPE":"U","NORAD_CAT_ID":53936,"ELEMENT_SET_NO":999,"REV_AT_EPOCH":16221,"BSTAR":1.1593567e-5,"MEAN_MOTION_DOT":-1.03e-6,"MEAN_MOTION_DDOT":0},{"OBJECT_NAME":"STARLINK-4633","OBJECT_ID":"2022-125A","EPOCH":"2025-08-24T14:00:39.818880","MEAN_MOTION":15.08836428,"ECCENTRICITY":0.00013261,"INCLINATION":53.2193,"RA_OF_ASC_NODE":29.12,"ARG_OF_PERICENTER":96.1245,"MEAN_ANOMALY":263.9898,"EPHEMERIS_TYPE":0,"CLASSIFICATION_TYPE":"U","NORAD_CAT_ID":53964,"ELEMENT_SET_NO":999,"REV_AT_EPOCH":15956,"BSTAR":4.8179594e-5,"MEAN_MOTION_DOT":4.79e-6,"MEAN_MOTION_DDOT":0},{"OBJECT_NAME":"STARLINK-4578","OBJECT_ID":"2022-125B","EPOCH":"2025-08-24T13:56:44.206080","MEAN_MOTION":15.08837813,"ECCENTRICITY":0.00013251,"INCLINATION":53.2188,"RA_OF_ASC_NODE":29.1034,"ARG_OF_PERICENTER":92.3986,"MEAN_ANOMALY":267.7158,"EPHEMERIS_TYPE":0,"CLASSIFICATION_TYPE":"U","NORAD_CAT_ID":53965,"ELEMENT_SET_NO":999,"REV_AT_EPOCH":15956,"BSTAR":1.7982313e-5,"MEAN_MOTION_DOT":-2.0e-8,"MEAN_MOTION_DDOT":0},{"OBJECT_NAME":"STARLINK-4635","OBJECT_ID":"2022-125C","EPOCH":"2025-08-24T13:50:03.081120","MEAN_MOTION":15.08835952,"ECCENTRICITY":0.00013275,"INCLINATION":53.218,"RA_OF_ASC_NODE":29.0731,"ARG_OF_PERICENTER":92.5453,"MEAN_ANOMALY":267.5691,"EPHEMERIS_TYPE":0,"CLASSIFICATION_TYPE":"U","NORAD_CAT_ID":53966,"ELEMENT_SET_NO":999,"REV_AT_EPOCH":15956,"BSTAR":-1.5175907e-5,"MEAN_MOTION_DOT":-5.29e-6,"MEAN_MOTION_DDOT":0},{"OBJECT_NAME":"STARLINK-4634","OBJECT_ID":"2022-125D","EPOCH":"2025-08-24T13:44:44.532096","MEAN_MOTION":15.08831985,"ECCENTRICITY":0.00013109,"INCLINATION":53.2184,"RA_OF_ASC_NODE":29.0501,"ARG_OF_PERICENTER":98.1038,"MEAN_ANOMALY":262.0103,"EPHEMERIS_TYPE":0,"CLASSIFICATION_TYPE":"U","NORAD_CAT_ID":53967,"ELEMENT_SET_NO":999,"REV_AT_EPOCH":15956,"BSTAR":0.00012938721,"MEAN_MOTION_DOT":1.771e-5,"MEAN_MOTION_DDOT":0},{"OBJECT_NAME":"STARLINK-4629","OBJECT_ID":"2022-125E","EPOCH":"2025-08-24T13:28:50.063520","MEAN_MOTION":15.08849929,"ECCENTRICITY":0.00012788,"INCLINATION":53.218,"RA_OF_ASC_NODE":28.9811,"ARG_OF_PERICENTER":82.7975,"MEAN_ANOMALY":277.3163,"EPHEMERIS_TYPE":0,"CLASSIFICATION_TYPE":"U","NORAD_CAT_ID":53968,"ELEMENT_SET_NO":999,"REV_AT_EPOCH":15956,"BSTAR":0.00014060358,"MEAN_MOTION_DOT":1.951e-5,"MEAN_MOTION_DDOT":0},{"OBJECT_NAME":"STARLINK-4468","OBJECT_ID":"2022-125F","EPOCH":"2025-08-24T13:39:26.516160","MEAN_MOTION":15.08834449,"ECCENTRICITY":0.00012157,"INCLINATION":53.2176,"RA_OF_ASC_NODE":29.0262,"ARG_OF_PERICENTER":85.5742,"MEAN_ANOMALY":274.5389,"EPHEMERIS_TYPE":0,"CLASSIFICATION_TYPE":"U","NORAD_CAT_ID":53969,"ELEMENT_SET_NO":999,"REV_AT_EPOCH":15956,"BSTAR":1.978498e-6,"MEAN_MOTION_DOT":-2.56e-6,"MEAN_MOTION_DDOT":0},{"OBJECT_NAME":"STARLINK-4567","OBJECT_ID":"2022-125G","EPOCH":"2025-08-24T13:42:45.768384","MEAN_MOTION":15.08835926,"ECCENTRICITY":0.00012783,"INCLINATION":53.2189,"RA_OF_ASC_NODE":24.0631,"ARG_OF_PERICENTER":90.4544,"MEAN_ANOMALY":269.6594,"EPHEMERIS_TYPE":0,"CLASSIFICATION_TYPE":"U","NORAD_CAT_ID":53970,"ELEMENT_SET_NO":999,"REV_AT_EPOCH":15964,"BSTAR":-8.966568e-6,"MEAN_MOTION_DOT":-4.31e-6,"MEAN_MOTION_DDOT":0},{"OBJECT_NAME":"STARLINK-4639","OBJECT_ID":"2022-125H","EPOCH":"2025-08-24T13:29:36.217536","MEAN_MOTION":15.40005823,"ECCENTRICITY":0.00013328,"INCLINATION":53.2201,"RA_OF_ASC_NODE":14.3103,"ARG_OF_PERICENTER":3.3744,"MEAN_ANOMALY":356.7271,"EPHEMERIS_TYPE":0,"CLASSIFICATION_TYPE":"U","NORAD_CAT_ID":53971,"ELEMENT_SET_NO":999,"REV_AT_EPOCH":15977,"BSTAR":0.00070430224,"MEAN_MOTION_DOT":0.00028235,"MEAN_MOTION_DDOT":0},{"OBJECT_NAME":"STARLINK-5156","OBJECT_ID":"2022-125K","EPOCH":"2025-08-23T18:18:54.020736","MEAN_MOTION":15.08836136,"ECCENTRICITY":0.00016411,"INCLINATION":53.2187,"RA_OF_ASC_NODE":32.5252,"ARG_OF_PERICENTER":92.3608,"MEAN_ANOMALY":267.7572,"EPHEMERIS_TYPE":0,"CLASSIFICATION_TYPE":"U","NORAD_CAT_ID":53973,"ELEMENT_SET_NO":999,"REV_AT_EPOCH":15944,"BSTAR":9.235948e-6,"MEAN_MOTION_DOT":-1.41e-6,"MEAN_MOTION_DDOT":0},{"OBJECT_NAME":"STARLINK-5159","OBJECT_ID":"2022-125L","EPOCH":"2025-08-24T14:13:48.692352","MEAN_MOTION":15.08859676,"ECCENTRICITY":0.00017524,"INCLINATION":53.2182,"RA_OF_ASC_NODE":8.5254,"ARG_OF_PERICENTER":77.2919,"MEAN_ANOMALY":282.8269,"EPHEMERIS_TYPE":0,"CLASSIFICATION_TYPE":"U","NORAD_CAT_ID":53974,"ELEMENT_SET_NO":999,"REV_AT_EPOCH":15985,"BSTAR":-0.00031118204,"MEAN_MOTION_DOT":-5.24e-5,"MEAN_MOTION_DDOT":0},{"OBJECT_NAME":"STARLINK-5137","OBJECT_ID":"2022-125M","EPOCH":"2025-08-24T14:14:30.165216","MEAN_MOTION":15.08834133,"ECCENTRICITY":0.00010873,"INCLINATION":53.2182,"RA_OF_ASC_NODE":23.4983,"ARG_OF_PERICENTER":98.1933,"MEAN_ANOMALY":261.9183,"EPHEMERIS_TYPE":0,"CLASSIFICATION_TYPE":"U","NORAD_CAT_ID":53975,"ELEMENT_SET_NO":999,"REV_AT_EPOCH":15964,"BSTAR":7.2714152e-5,"MEAN_MOTION_DOT":8.69e-6,"MEAN_MOTION_DDOT":0},{"OBJECT_NAME":"STARLINK-5134","OBJECT_ID":"2022-125N","EPOCH":"2025-08-24T15:22:47.689536","MEAN_MOTION":15.0883707,"ECCENTRICITY":0.00011887,"INCLINATION":53.2186,"RA_OF_ASC_NODE":8.8249,"ARG_OF_PERICENTER":86.2553,"MEAN_ANOMALY":273.8575,"EPHEMERIS_TYPE":0,"CLASSIFICATION_TYPE":"U","NORAD_CAT_ID":53976,"ELEMENT_SET_NO":999,"REV_AT_EPOCH":15985,"BSTAR":-1.7981929e-5,"MEAN_MOTION_DOT":-5.74e-6,"MEAN_MOTION_DDOT":0},{"OBJECT_NAME":"STARLINK-5094","OBJECT_ID":"2022-125P","EPOCH":"2025-08-24T13:53:22.354080","MEAN_MOTION":15.08835133,"ECCENTRICITY":0.00011922,"INCLINATION":53.2192,"RA_OF_ASC_NODE":24.0995,"ARG_OF_PERICENTER":86.6872,"MEAN_ANOMALY":273.4257,"EPHEMERIS_TYPE":0,"CLASSIFICATION_TYPE":"U","NORAD_CAT_ID":53977,"ELEMENT_SET_NO":999,"REV_AT_EPOCH":15963,"BSTAR":8.775001e-6,"MEAN_MOTION_DOT":-1.48e-6,"MEAN_MOTION_DDOT":0},{"OBJECT_NAME":"STARLINK-5148","OBJECT_ID":"2022-125Q","EPOCH":"2025-08-24T13:26:50.091072","MEAN_MOTION":15.08836277,"ECCENTRICITY":0.00012007,"INCLINATION":53.2181,"RA_OF_ASC_NODE":23.9826,"ARG_OF_PERICENTER":95.1985,"MEAN_ANOMALY":264.9144,"EPHEMERIS_TYPE":0,"CLASSIFICATION_TYPE":"U","NORAD_CAT_ID":53978,"ELEMENT_SET_NO":999,"REV_AT_EPOCH":15963,"BSTAR":1.300395e-6,"MEAN_MOTION_DOT":-2.67e-6,"MEAN_MOTION_DDOT":0},{"OBJECT_NAME":"STARLINK-5123","OBJECT_ID":"2022-125R","EPOCH":"2025-08-24T13:37:27.207264","MEAN_MOTION":15.0883555,"ECCENTRICITY":0.00011199,"INCLINATION":53.219,"RA_OF_ASC_NODE":24.0322,"ARG_OF_PERICENTER":91.7976,"MEAN_ANOMALY":268.3144,"EPHEMERIS_TYPE":0,"CLASSIFICATION_TYPE":"U","NORAD_CAT_ID":53979,"ELEMENT_SET_NO":999,"REV_AT_EPOCH":15963,"BSTAR":9.242344e-6,"MEAN_MOTION_DOT":-1.41e-6,"MEAN_MOTION_DDOT":0}]
