STARLINK-4791           
1 53936U 22119BC  25236.05980209 -.00000103  00000+0  11594-4 0  9990
2 53936  53.2165 106.0524 0001334  90.0068 270.1078 15.08837705162213
STARLINK-4633           
1 53964U 22125A   25236.58379420  .00000479  00000+0  48180-4 0  9999
2 53964  53.2193  29.1200 0001326  96.1245 263.9898 15.08836428159561
STARLINK-4578           
1 53965U 22125B   25236.58106720 -.00000002  00000+0  17982-4 0  9990
2 53965  53.2188  29.1034 0001325  92.3986 267.7158 15.08837813159560
STARLINK-4635           
1 53966U 22125C   25236.57642455 -.00000529  00000+0 -15176-4 0  9998
2 53966  53.2180  29.0731 0001327  92.5453 267.5691 15.08835952159561
STARLINK-4634           
1 53967U 22125D   25236.57273764  .00001771  00000+0  12939-3 0  9993
2 53967  53.2184  29.0501 0001310  98.1038 262.0103 15.08831985159564
STARLINK-4629           
1 53968U 22125E   25236.56169055  .00001951  00000+0  14060-3 0  9997
2 53968  53.2180  28.9811 0001278  82.7975 277.3163 15.08849929159567
STARLINK-4468           
1 53969U 22125F   25236.56905690 -.00000256  00000+0  19785-5 0  9990
2 53969  53.2176  29.0262 0001215  85.5742 274.5389 15.08834449159569
STARLINK-4567           
1 53970U 22125G   25236.57136306 -.00000431  00000+0 -89666-5 0  9994
2 53970  53.2189  24.0631 0001278  90.4544 269.6594 15.08835926159647
STARLINK-4639           
1 53971U 22125H   25236.56222474  .00028235  00000+0  70430-3 0  9993
2 53971  53.2201  14.3103 0001332   3.3744 356.7271 15.40005823159770
STARLINK-5156           
1 53973U 22125K   25235.76312524 -.00000141  00000+0  92359-5 0  9995
2 53973  53.2187  32.5252 0001641  92.3608 267.7572 15.08836136159444
STARLINK-5159           
1 53974U 22125L   25236.59292468 -.00005240  00000+0 -31118-3 0  9992
2 53974  53.2182   8.5254 0001752  77.2919 282.8269 15.08859676159855
STARLINK-5137           
1 53975U 22125M   25236.59340469  .00000869  00000+0  72714-4 0  9996
2 53975  53.2182  23.4983 0001087  98.1933 261.9183 15.08834133159641
STARLINK-5134           
1 53976U 22125N   25236.64082974 -.00000574  00000+0 -17982-4 0  9998
2 53976  53.2186   8.8249 0001188  86.2553 273.8575 15.08837070159859
STARLINK-5094           
1 53977U 22125P   25236.57873095 -.00000148  00000+0  87750-5 0  9990
2 53977  53.2192  24.0995 0001192  86.6872 273.4257 15.08835133159635
STARLINK-5148           
1 53978U 22125Q   25236.56030198 -.00000267  00000+0  13004-5 0  9992
2 53978  53.2181  23.9826 0001200  95.1985 264.9144 15.08836277159635
STARLINK-5123           
1 53979U 22125R   25236.56767601 -.00000141  00000+0  92423-5 0  9992
2 53979  53.2190  24.0322 0001119  91.7976 268.3144 15.08835550159631
